SL-14 R/B,1 21423U 91042B   26030.13254226  .00000576  00000+0  69832-4 0  9993,2 21423  82.4908 256.3473 0017376  12.8845 347.2809 14.81792771847365,-27.714600943101072,-45.00715185853052,624696.4881469094
ERS-1,1 21574U 91050A   26030.04886757  .00000573  00000+0  19815-3 0  9991,2 21574  98.7895  47.3119 0031267 318.4240  41.4570 14.39415394810174,-5.008739361476783,111.41720604226961,746511.2187721344
ARIANE 40 R/B,1 21610U 91050F   26030.12232157  .00000507  00000+0  16431-3 0  9998,2 21610  98.2093  83.7912 0003231 170.2822 189.8431 14.42863270813434,-21.072896701892322,150.19741277563884,759308.476145909
INTERCOSMOS 25,1 21819U 91086A   26029.85272698  .00001757  00000+0  34503-3 0  9998,2 21819  82.6093 333.4774 1486358 200.6168 152.8304 12.11895774491989,51.79353790785892,-153.4218451341297,1108643.3408477204
SL-8 R/B,1 21876U 92008B   26030.11904903  .00000071  00000+0  57959-4 0  9997,2 21876  82.9280 296.4693 0033454 241.6506 228.8918 13.75968751704110,23.169663021228565,2.1464044487398275,1000561.2104808113
SL-8 R/B,1 21938U 92020B   26030.16289131  .00000155  00000+0  14448-3 0  9992,2 21938  82.9314 182.3588 0029826  47.2023 125.4763 13.75542992695838,-47.49159549394386,72.77556407007084,1020050.2914166856
USA 81,1 21949U 92023A   26029.39855773  .00000328  00000+0  11413-3 0  9992,2 21949  85.0116 154.0946 0002269 111.3726 248.7708 14.32351859 89168,82.48929760542748,-4.800785808342482,795899.5467246085
COSMOS 2219,1 22219U 92076A   26030.18070778 -.00000229  00000+0 -95461-4 0  9992,2 22219  71.0599  98.5749 0020738 260.5954  99.2824 14.14079279712932,6.339823020123605,163.06088486844172,851506.1593074298
SL-16 R/B,1 22220U 92076B   26030.09588270  .00000144  00000+0  95752-4 0  9992,2 22220  70.9987 269.6725 0012130 163.8846 346.2219 14.16850848716365,-48.63681746938241,174.69625045884183,851173.1516203935
COSMOS 2221,1 22236U 92080A   26029.84620943  .00003284  00000+0  28993-3 0  9999,2 22236  82.5066 316.2769 0013623 329.8308  30.2128 14.96030767774980,82.52465820184408,113.04041532615253,597845.4533276721
SL-16 R/B,1 22285U 92093B   26030.15353059 -.00000145  00000+0 -49939-4 0  9993,2 22285  71.0213  85.1670 0004851 334.6408  25.4476 14.15443370707709,31.43108972805496,-44.647970416204544,847757.1357597691
COSMOS 2228,1 22286U 92094A   26030.08845347  .00003711  00000+0  31907-3 0  9998,2 22286  82.5177 274.2718 0019531  72.8514 287.4844 14.97011018770282,-48.02698519199165,165.1674309471464,607251.9594529178
