CCSDS_OMM_VERS = 2.0
CREATION_DATE  = 
ORIGINATOR     = 

OBJECT_NAME    = SL-14 R/B
OBJECT_ID      = 1991-042B
CENTER_NAME    = EARTH
REF_FRAME      = TEME
TIME_SYSTEM    = UTC
MEAN_ELEMENT_THEORY = SGP/SGP4

EPOCH          = 2026-01-30T03:10:51.651264
MEAN_MOTION    = 14.81792771
ECCENTRICITY   = .0017376
INCLINATION    = 82.4908
RA_OF_ASC_NODE = 256.3473
ARG_OF_PERICENTER = 12.8845
MEAN_ANOMALY   = 347.2809

EPHEMERIS_TYPE = 0
CLASSIFICATION_TYPE = U
NORAD_CAT_ID   = 21423
ELEMENT_SET_NO = 999
REV_AT_EPOCH   = 84736
BSTAR          = .69832E-4
MEAN_MOTION_DOT = .576E-5
MEAN_MOTION_DDOT = 0

CCSDS_OMM_VERS = 2.0
CREATION_DATE  = 
ORIGINATOR     = 

OBJECT_NAME    = ERS-1
OBJECT_ID      = 1991-050A
CENTER_NAME    = EARTH
REF_FRAME      = TEME
TIME_SYSTEM    = UTC
MEAN_ELEMENT_THEORY = SGP/SGP4

EPOCH          = 2026-01-30T01:10:22.158048
MEAN_MOTION    = 14.39415394
ECCENTRICITY   = .0031267
INCLINATION    = 98.7895
RA_OF_ASC_NODE = 47.3119
ARG_OF_PERICENTER = 318.4240
MEAN_ANOMALY   = 41.4570

EPHEMERIS_TYPE = 0
CLASSIFICATION_TYPE = U
NORAD_CAT_ID   = 21574
ELEMENT_SET_NO = 999
REV_AT_EPOCH   = 81017
BSTAR          = .19815E-3
MEAN_MOTION_DOT = .573E-5
MEAN_MOTION_DDOT = 0

CCSDS_OMM_VERS = 2.0
CREATION_DATE  = 
ORIGINATOR     = 

OBJECT_NAME    = ARIANE 40 R/B
OBJECT_ID      = 1991-050F
CENTER_NAME    = EARTH
REF_FRAME      = TEME
TIME_SYSTEM    = UTC
MEAN_ELEMENT_THEORY = SGP/SGP4

EPOCH          = 2026-01-30T02:56:08.583648
MEAN_MOTION    = 14.42863270
ECCENTRICITY   = .0003231
INCLINATION    = 98.2093
RA_OF_ASC_NODE = 83.7912
ARG_OF_PERICENTER = 170.2822
MEAN_ANOMALY   = 189.8431

EPHEMERIS_TYPE = 0
CLASSIFICATION_TYPE = U
NORAD_CAT_ID   = 21610
ELEMENT_SET_NO = 999
REV_AT_EPOCH   = 81343
BSTAR          = .16431E-3
MEAN_MOTION_DOT = .507E-5
MEAN_MOTION_DDOT = 0

CCSDS_OMM_VERS = 2.0
CREATION_DATE  = 
ORIGINATOR     = 

OBJECT_NAME    = INTERCOSMOS 25
OBJECT_ID      = 1991-086A
CENTER_NAME    = EARTH
REF_FRAME      = TEME
TIME_SYSTEM    = UTC
MEAN_ELEMENT_THEORY = SGP/SGP4

EPOCH          = 2026-01-29T20:27:55.611072
MEAN_MOTION    = 12.11895774
ECCENTRICITY   = .1486358
INCLINATION    = 82.6093
RA_OF_ASC_NODE = 333.4774
ARG_OF_PERICENTER = 200.6168
MEAN_ANOMALY   = 152.8304

EPHEMERIS_TYPE = 0
CLASSIFICATION_TYPE = U
NORAD_CAT_ID   = 21819
ELEMENT_SET_NO = 999
REV_AT_EPOCH   = 49198
BSTAR          = .34503E-3
MEAN_MOTION_DOT = .1757E-4
MEAN_MOTION_DDOT = 0

CCSDS_OMM_VERS = 2.0
CREATION_DATE  = 
ORIGINATOR     = 

OBJECT_NAME    = SL-8 R/B
OBJECT_ID      = 1992-008B
CENTER_NAME    = EARTH
REF_FRAME      = TEME
TIME_SYSTEM    = UTC
MEAN_ELEMENT_THEORY = SGP/SGP4

EPOCH          = 2026-01-30T02:51:25.836192
MEAN_MOTION    = 13.75968751
ECCENTRICITY   = .0033454
INCLINATION    = 82.9280
RA_OF_ASC_NODE = 296.4693
ARG_OF_PERICENTER = 241.6506
MEAN_ANOMALY   = 228.8918

EPHEMERIS_TYPE = 0
CLASSIFICATION_TYPE = U
NORAD_CAT_ID   = 21876
ELEMENT_SET_NO = 999
REV_AT_EPOCH   = 70411
BSTAR          = .57959E-4
MEAN_MOTION_DOT = .71E-6
MEAN_MOTION_DDOT = 0

CCSDS_OMM_VERS = 2.0
CREATION_DATE  = 
ORIGINATOR     = 

OBJECT_NAME    = SL-8 R/B
OBJECT_ID      = 1992-020B
CENTER_NAME    = EARTH
REF_FRAME      = TEME
TIME_SYSTEM    = UTC
MEAN_ELEMENT_THEORY = SGP/SGP4

EPOCH          = 2026-01-30T03:54:33.809184
MEAN_MOTION    = 13.75542992
ECCENTRICITY   = .0029826
INCLINATION    = 82.9314
RA_OF_ASC_NODE = 182.3588
ARG_OF_PERICENTER = 47.2023
MEAN_ANOMALY   = 125.4763

EPHEMERIS_TYPE = 0
CLASSIFICATION_TYPE = U
NORAD_CAT_ID   = 21938
ELEMENT_SET_NO = 999
REV_AT_EPOCH   = 69583
BSTAR          = .14448E-3
MEAN_MOTION_DOT = .155E-5
MEAN_MOTION_DDOT = 0

CCSDS_OMM_VERS = 2.0
CREATION_DATE  = 
ORIGINATOR     = 

OBJECT_NAME    = USA 81
OBJECT_ID      = 1992-023A
CENTER_NAME    = EARTH
REF_FRAME      = TEME
TIME_SYSTEM    = UTC
MEAN_ELEMENT_THEORY = SGP/SGP4

EPOCH          = 2026-01-29T09:33:55.387872
MEAN_MOTION    = 14.32351859
ECCENTRICITY   = .0002269
INCLINATION    = 85.0116
RA_OF_ASC_NODE = 154.0946
ARG_OF_PERICENTER = 111.3726
MEAN_ANOMALY   = 248.7708

EPHEMERIS_TYPE = 0
CLASSIFICATION_TYPE = U
NORAD_CAT_ID   = 21949
ELEMENT_SET_NO = 999
REV_AT_EPOCH   = 8916
BSTAR          = .11413E-3
MEAN_MOTION_DOT = .328E-5
MEAN_MOTION_DDOT = 0

CCSDS_OMM_VERS = 2.0
CREATION_DATE  = 
ORIGINATOR     = 

OBJECT_NAME    = COSMOS 2219
OBJECT_ID      = 1992-076A
CENTER_NAME    = EARTH
REF_FRAME      = TEME
TIME_SYSTEM    = UTC
MEAN_ELEMENT_THEORY = SGP/SGP4

EPOCH          = 2026-01-30T04:20:13.152192
MEAN_MOTION    = 14.14079279
ECCENTRICITY   = .0020738
INCLINATION    = 71.0599
RA_OF_ASC_NODE = 98.5749
ARG_OF_PERICENTER = 260.5954
MEAN_ANOMALY   = 99.2824

EPHEMERIS_TYPE = 0
CLASSIFICATION_TYPE = U
NORAD_CAT_ID   = 22219
ELEMENT_SET_NO = 999
REV_AT_EPOCH   = 71293
BSTAR          = -.95461E-4
MEAN_MOTION_DOT = -.229E-5
MEAN_MOTION_DDOT = 0

CCSDS_OMM_VERS = 2.0
CREATION_DATE  = 
ORIGINATOR     = 

OBJECT_NAME    = SL-16 R/B
OBJECT_ID      = 1992-076B
CENTER_NAME    = EARTH
REF_FRAME      = TEME
TIME_SYSTEM    = UTC
MEAN_ELEMENT_THEORY = SGP/SGP4

EPOCH          = 2026-01-30T02:18:04.265280
MEAN_MOTION    = 14.16850848
ECCENTRICITY   = .001213
INCLINATION    = 70.9987
RA_OF_ASC_NODE = 269.6725
ARG_OF_PERICENTER = 163.8846
MEAN_ANOMALY   = 346.2219

EPHEMERIS_TYPE = 0
CLASSIFICATION_TYPE = U
NORAD_CAT_ID   = 22220
ELEMENT_SET_NO = 999
REV_AT_EPOCH   = 71636
BSTAR          = .95752E-4
MEAN_MOTION_DOT = .144E-5
MEAN_MOTION_DDOT = 0

CCSDS_OMM_VERS = 2.0
CREATION_DATE  = 
ORIGINATOR     = 

OBJECT_NAME    = COSMOS 2221
OBJECT_ID      = 1992-080A
CENTER_NAME    = EARTH
REF_FRAME      = TEME
TIME_SYSTEM    = UTC
MEAN_ELEMENT_THEORY = SGP/SGP4

EPOCH          = 2026-01-29T20:18:32.494752
MEAN_MOTION    = 14.96030767
ECCENTRICITY   = .0013623
INCLINATION    = 82.5066
RA_OF_ASC_NODE = 316.2769
ARG_OF_PERICENTER = 329.8308
MEAN_ANOMALY   = 30.2128

EPHEMERIS_TYPE = 0
CLASSIFICATION_TYPE = U
NORAD_CAT_ID   = 22236
ELEMENT_SET_NO = 999
REV_AT_EPOCH   = 77498
BSTAR          = .28993E-3
MEAN_MOTION_DOT = .3284E-4
MEAN_MOTION_DDOT = 0

CCSDS_OMM_VERS = 2.0
CREATION_DATE  = 
ORIGINATOR     = 

OBJECT_NAME    = SL-16 R/B
OBJECT_ID      = 1992-093B
CENTER_NAME    = EARTH
REF_FRAME      = TEME
TIME_SYSTEM    = UTC
MEAN_ELEMENT_THEORY = SGP/SGP4

EPOCH          = 2026-01-30T03:41:05.042976
MEAN_MOTION    = 14.15443370
ECCENTRICITY   = .0004851
INCLINATION    = 71.0213
RA_OF_ASC_NODE = 85.1670
ARG_OF_PERICENTER = 334.6408
MEAN_ANOMALY   = 25.4476

EPHEMERIS_TYPE = 0
CLASSIFICATION_TYPE = U
NORAD_CAT_ID   = 22285
ELEMENT_SET_NO = 999
REV_AT_EPOCH   = 70770
BSTAR          = -.49939E-4
MEAN_MOTION_DOT = -.145E-5
MEAN_MOTION_DDOT = 0

CCSDS_OMM_VERS = 2.0
CREATION_DATE  = 
ORIGINATOR     = 

OBJECT_NAME    = COSMOS 2228
OBJECT_ID      = 1992-094A
CENTER_NAME    = EARTH
REF_FRAME      = TEME
TIME_SYSTEM    = UTC
MEAN_ELEMENT_THEORY = SGP/SGP4

EPOCH          = 2026-01-30T02:07:22.379808
MEAN_MOTION    = 14.97011018
ECCENTRICITY   = .0019531
INCLINATION    = 82.5177
RA_OF_ASC_NODE = 274.2718
ARG_OF_PERICENTER = 72.8514
MEAN_ANOMALY   = 287.4844

EPHEMERIS_TYPE = 0
CLASSIFICATION_TYPE = U
NORAD_CAT_ID   = 22286
ELEMENT_SET_NO = 999
REV_AT_EPOCH   = 77028
BSTAR          = .31907E-3
MEAN_MOTION_DOT = .3711E-4
MEAN_MOTION_DDOT = 0

